STARLINK-37347          
1 68746U 26082U   26152.18732965  .00075150  00000+0  13704-2 0  9990
2 68746  97.2842  15.8715 0001329  97.3400 262.8002 15.49186832  7240
STARLINK-37268          
1 68747U 26082V   26151.58354125  .00064807  00000+0  11826-2 0  9992
2 68747  97.2846  15.3170 0001398 104.8307 255.3099 15.49208662  7150
STARLINK-37325          
1 68748U 26082W   26152.22076801  .00056932  00000+0  10404-2 0  9998
2 68748  97.2837  15.8254 0002283  82.3011 277.8499 15.49201676  7246
STARLINK-37324          
1 68749U 26082X   26152.25002315 -.00035923  00000+0 -11149-2 0  9997
2 68749  97.2845  16.0374 0001583 103.9691 118.8114 15.33465850  6019
STARLINK-37350          
1 68750U 26082Y   26152.06137719  .00029152  00000+0  90126-3 0  9993
2 68750  97.2825  14.8202 0001253  93.8889 266.2498 15.33464976  7163
STARLINK-37277          
1 68751U 26082Z   26152.25002315 -.02535351  00000+0 -62868-1 0  9995
2 68751  97.2850  16.0102 0001962  76.0070  80.6827 15.44061524  6018
STARLINK-37342          
1 68752U 26082AA  26152.22695507 -.00380904  00000+0 -77706-2 0  9992
2 68752  97.2844  15.9709 0001162  88.9204 271.2179 15.47578558  7254
SL-4 R/B                
1 68753U 26083A   26152.32063236  .00004546  00000+0  19062-3 0  9998
2 68753  98.2713 302.0894 0062241 283.6822  75.7487 15.22356042  6917
COSMOS 2609             
1 68754U 26083B   26152.31041961  .00002371  00000+0  16146-3 0  9993
2 68754  98.1199 300.3309 0012334 121.6039 238.6392 15.07301632  6830
COSMOS 2610             
1 68758U 26083F   26152.26366491  .00003431  00000+0  23671-3 0  9998
2 68758  97.8032 290.0167 0011871 106.9303 253.3226 15.06441965  6808
COSMOS 2611             
1 68759U 26083G   26152.33607330  .00003246  00000+0  22615-3 0  9998
2 68759  97.8088 289.5343 0012577 112.7745 247.4811 15.06111542  6807
DAQI-2                  
1 68760U 26084A   26152.24511420  .00000062  00000+0  23720-4 0  9997
2 68760  98.2872 226.4794 0002871 131.0404 229.1043 14.57559267  6570
COSMOS 2612             
1 68762U 26083H   26152.31722687  .00002930  00000+0  20001-3 0  9999
2 68762  97.8523 290.1024 0014434 103.0741 257.2097 15.06935067  6814
COSMOS 2613             
1 68763U 26083J   26152.30616928  .00002637  00000+0  17824-3 0  9992
2 68763  97.7785 290.1639 0011407 106.0664 254.1820 15.07416785  6812
COSMOS 2614             
1 68764U 26083K   26152.31503043  .00002744  00000+0  19404-3 0  9992
2 68764  97.7765 289.4001 0007845  76.1040 284.1058 15.05712491  6818
STARLINK-37168          
1 68766U 26086A   26152.05567222  .00062086  00000+0  11326-2 0  9996
2 68766  97.2843 188.8828 0001792 106.4958 253.6490 15.49230612  6595
STARLINK-37174          
1 68767U 26086B   26152.25002315 -.02504772  00000+0 -68435-1 0  9995
2 68767  97.2835 189.2060 0001714  82.2409 213.0877 15.41141233  5956
STARLINK-37279          
1 68768U 26086C   26152.08132473  .00071403  00000+0  12997-2 0  9995
2 68768  97.2837 189.0009 0001656  86.2726 273.8714 15.49253405  6601
STARLINK-36379          
1 68769U 26086D   26152.00460292  .00074191  00000+0  13517-2 0  9997
2 68769  97.2842 188.7981 0000685  31.2493 328.8799 15.49216860  6580
STARLINK-37417          
1 68770U 26086E   26152.07498127  .00092085  00000+0  16730-2 0  9996
2 68770  97.2827 189.0086 0001383 104.4945 255.6459 15.49225281  6606
STARLINK-36759          
1 68771U 26086F   26152.26441488 -.00230540  00000+0 -46056-2 0  9992
2 68771  97.2837 189.2097 0000435 354.0750   6.0495 15.47634384  6633
STARLINK-37399          
1 68772U 26086G   26152.03773448  .00057554  00000+0  10512-2 0  9990
2 68772  97.2834 188.9065 0001187  81.0580 279.0806 15.49215431  6598
STARLINK-37281          
1 68773U 26086H   26152.06036217  .00051656  00000+0  94447-3 0  9997
2 68773  97.2840 188.8735 0001246  97.0110 263.1283 15.49211936  6590
STARLINK-37381          
1 68774U 26086J   26152.00264384  .00069693  00000+0  12705-2 0  9996
2 68774  97.2834 188.9540 0001205  77.9565 282.1822 15.49217857  6593
STARLINK-37418          
1 68775U 26086K   26152.08094666  .00078069  00000+0  14213-2 0  9992
2 68775  97.2831 189.0006 0000048 241.1963 118.9283 15.49222387  6604
STARLINK-37393          
1 68776U 26086L   26152.25002315 -.02533686  00000+0 -70398-1 0  9992
2 68776  97.2841 189.2716 0001718  80.4604   7.4063 15.40682458  5851
STARLINK-37400          
1 68777U 26086M   26152.07544926  .00060149  00000+0  10981-2 0  9990
2 68777  97.2841 189.0087 0001290  75.7147 284.4247 15.49217358  6602
STARLINK-37389          
1 68778U 26086N   26152.07307634  .00089608  00000+0  16298-2 0  9992
2 68778  97.2836 189.0102 0001181  92.2184 267.9202 15.49203272  6606
STARLINK-37391          
1 68779U 26086P   26152.05778075  .00054268  00000+0  99085-3 0  9992
2 68779  97.2834 189.0315 0001106  84.5897 275.5480 15.49240294  6601
STARLINK-37266          
1 68780U 26086Q   26152.05690204  .00078191  00000+0  14215-2 0  9993
2 68780  97.2837 189.0324 0000536 127.0360 233.0941 15.49261681  6604
