OBJECT_NAME,OBJECT_ID,EPOCH,MEAN_MOTION,ECCENTRICITY,INCLINATION,RA_OF_ASC_NODE,ARG_OF_PERICENTER,MEAN_ANOMALY,EPHEMERIS_TYPE,CLASSIFICATION_TYPE,NORAD_CAT_ID,ELEMENT_SET_NO,REV_AT_EPOCH,BSTAR,MEAN_MOTION_DOT,MEAN_MOTION_DDOT
STARLINK-37347,2026-082U,2026-06-01T04:29:45.281760,15.49186832,.00013296,97.2842,15.8715,97.3400,262.8002,0,U,68746,999,724,.13703924E-2,.7515E-3,0
STARLINK-37268,2026-082V,2026-05-31T14:00:17.964000,15.49208662,.00013981,97.2846,15.3170,104.8307,255.3099,0,U,68747,999,715,.11826484E-2,.64807E-3,0
STARLINK-37325,2026-082W,2026-06-01T05:17:54.356064,15.49201676,.00022837,97.2837,15.8254,82.3011,277.8499,0,U,68748,999,724,.10403976E-2,.56932E-3,0
STARLINK-37324,2026-082X,2026-06-01T06:00:02.000160,15.33465850,.00015834,97.2845,16.0374,103.9691,118.8114,0,U,68749,999,601,-.1114899E-2,-.35923E-3,0
STARLINK-37350,2026-082Y,2026-06-01T01:28:22.989216,15.33464976,.00012535,97.2825,14.8202,93.8889,266.2498,0,U,68750,999,716,.90126408E-3,.29152E-3,0
STARLINK-37277,2026-082Z,2026-06-01T06:00:02.000160,15.44061524,.00019621,97.2850,16.0102,76.0070,80.6827,0,U,68751,999,601,-.62867934E-1,-.2535351E-1,0
STARLINK-37342,2026-082AA,2026-06-01T05:26:48.918048,15.47578558,.00011622,97.2844,15.9709,88.9204,271.2179,0,U,68752,999,725,-.7770573E-2,-.380904E-2,0
SL-4 R/B,2026-083A,2026-06-01T07:41:42.635904,15.22356042,.00622411,98.2713,302.0894,283.6822,75.7487,0,U,68753,999,691,.19062293E-3,.4546E-4,0
COSMOS 2609,2026-083B,2026-06-01T07:27:00.254304,15.07301632,.00123348,98.1199,300.3309,121.6039,238.6392,0,U,68754,999,683,.16146066E-3,.2371E-4,0
COSMOS 2610,2026-083F,2026-06-01T06:19:40.648224,15.06441965,.00118717,97.8032,290.0167,106.9303,253.3226,0,U,68758,999,680,.2367098E-3,.3431E-4,0
COSMOS 2611,2026-083G,2026-06-01T08:03:56.733120,15.06111542,.00125776,97.8088,289.5343,112.7745,247.4811,0,U,68759,999,680,.22615366E-3,.3246E-4,0
DAQI-2,2026-084A,2026-06-01T05:52:57.866880,14.57559267,.00028716,98.2872,226.4794,131.0404,229.1043,0,U,68760,999,657,.23719537E-4,.62E-6,0
COSMOS 2612,2026-083H,2026-06-01T07:36:48.401568,15.06935067,.00144344,97.8523,290.1024,103.0741,257.2097,0,U,68762,999,681,.20001178E-3,.293E-4,0
COSMOS 2613,2026-083J,2026-06-01T07:20:53.025792,15.07416785,.00114078,97.7785,290.1639,106.0664,254.1820,0,U,68763,999,681,.17824172E-3,.2637E-4,0
COSMOS 2614,2026-083K,2026-06-01T07:33:38.629152,15.05712491,.00078457,97.7765,289.4001,76.1040,284.1058,0,U,68764,999,681,.19403555E-3,.2744E-4,0
STARLINK-37168,2026-086A,2026-06-01T01:20:10.079808,15.49230612,.00017922,97.2843,188.8828,106.4958,253.6490,0,U,68766,999,659,.1132583E-2,.62086E-3,0
STARLINK-37174,2026-086B,2026-06-01T06:00:02.000160,15.41141233,.00017141,97.2835,189.2060,82.2409,213.0877,0,U,68767,999,595,-.68434687E-1,-.2504772E-1,0
STARLINK-37279,2026-086C,2026-06-01T01:57:06.456672,15.49253405,.00016561,97.2837,189.0009,86.2726,273.8714,0,U,68768,999,660,.12997209E-2,.71403E-3,0
STARLINK-36379,2026-086D,2026-06-01T00:06:37.692288,15.49216860,.00006856,97.2842,188.7981,31.2493,328.8799,0,U,68769,999,658,.13516871E-2,.74191E-3,0
STARLINK-37417,2026-086E,2026-06-01T01:47:58.381728,15.49225281,.00013837,97.2827,189.0086,104.4945,255.6459,0,U,68770,999,660,.16729704E-2,.92085E-3,0
STARLINK-36759,2026-086F,2026-06-01T06:20:45.445632,15.47634384,.00004354,97.2837,189.2097,354.0750,6.0495,0,U,68771,999,663,-.46055983E-2,-.23054E-2,0
STARLINK-37399,2026-086G,2026-06-01T00:54:20.259072,15.49215431,.00011877,97.2834,188.9065,81.0580,279.0806,0,U,68772,999,659,.10512069E-2,.57554E-3,0
STARLINK-37281,2026-086H,2026-06-01T01:26:55.291488,15.49211936,.00012468,97.2840,188.8735,97.0110,263.1283,0,U,68773,999,659,.94447393E-3,.51656E-3,0
STARLINK-37381,2026-086J,2026-06-01T00:03:48.427776,15.49217857,.00012059,97.2834,188.9540,77.9565,282.1822,0,U,68774,999,659,.12705081E-2,.69693E-3,0
STARLINK-37418,2026-086K,2026-06-01T01:56:33.791424,15.49222387,.00000489,97.2831,189.0006,241.1963,118.9283,0,U,68775,999,660,.14212597E-2,.78069E-3,0
STARLINK-37393,2026-086L,2026-06-01T06:00:02.000160,15.40682458,.00017182,97.2841,189.2716,80.4604,7.4063,0,U,68776,999,585,-.70397739E-1,-.2533686E-1,0
STARLINK-37400,2026-086M,2026-06-01T01:48:38.816064,15.49217358,.00012904,97.2841,189.0087,75.7147,284.4247,0,U,68777,999,660,.10980911E-2,.60149E-3,0
STARLINK-37389,2026-086N,2026-06-01T01:45:13.795776,15.49203272,.00011816,97.2836,189.0102,92.2184,267.9202,0,U,68778,999,660,.16297844E-2,.89608E-3,0
STARLINK-37391,2026-086P,2026-06-01T01:23:12.256800,15.49240294,.00011061,97.2834,189.0315,84.5897,275.5480,0,U,68779,999,660,.99084701E-3,.54268E-3,0
STARLINK-37266,2026-086Q,2026-06-01T01:21:56.336256,15.49261681,.00005365,97.2837,189.0324,127.0360,233.0941,0,U,68780,999,660,.1421507E-2,.78191E-3,0
